{
    "links": {
        "self": "http://www.neowsapp.com/rest/v1/neo/3841843?api_key=iIulBulltgU6a56xZRHN4H3l9WmuAYTsLGpBGhQ2"
    },
    "id": "3841843",
    "neo_reference_id": "3841843",
    "name": "(2019 JQ5)",
    "designation": "2019 JQ5",
    "nasa_jpl_url": "http://ssd.jpl.nasa.gov/sbdb.cgi?sstr=3841843",
    "absolute_magnitude_h": 22.5,
    "estimated_diameter": {
        "kilometers": {
            "estimated_diameter_min": 0.0840533402,
            "estimated_diameter_max": 0.1879489824
        },
        "meters": {
            "estimated_diameter_min": 84.0533402073,
            "estimated_diameter_max": 187.9489824394
        },
        "miles": {
            "estimated_diameter_min": 0.0522283081,
            "estimated_diameter_max": 0.1167860472
        },
        "feet": {
            "estimated_diameter_min": 275.7655606856,
            "estimated_diameter_max": 616.6305395464
        }
    },
    "is_potentially_hazardous_asteroid": false,
    "close_approach_data": [
        {
            "close_approach_date": "2019-06-01",
            "close_approach_date_full": "2019-Jun-01 15:48",
            "epoch_date_close_approach": 1559404080000,
            "relative_velocity": {
                "kilometers_per_second": "10.1778101004",
                "kilometers_per_hour": "36640.116361265",
                "miles_per_hour": "22766.743413476"
            },
            "miss_distance": {
                "astronomical": "0.1500098607",
                "lunar": "58.3538358123",
                "kilometers": "22441155.639716709",
                "miles": "13944287.5093162242"
            },
            "orbiting_body": "Earth"
        },
        {
            "close_approach_date": "2024-08-17",
            "close_approach_date_full": "2024-Aug-17 16:00",
            "epoch_date_close_approach": 1723910400000,
            "relative_velocity": {
                "kilometers_per_second": "3.9851625716",
                "kilometers_per_hour": "14346.585257602",
                "miles_per_hour": "8914.4101563139"
            },
            "miss_distance": {
                "astronomical": "1.5601709075",
                "lunar": "606.9064830175",
                "kilometers": "233398244.597967025",
                "miles": "145026944.204413945"
            },
            "orbiting_body": "Juptr"
        }
    ],
    "orbital_data": {
        "orbit_id": "6",
        "orbit_determination_date": "2019-06-03 06:43:32",
        "first_observation_date": "2019-05-09",
        "last_observation_date": "2019-06-02",
        "data_arc_in_days": 24,
        "observations_used": 50,
        "orbit_uncertainty": "7",
        "minimum_orbit_intersection": ".134966",
        "jupiter_tisserand_invariant": "3.340",
        "epoch_osculation": "2459000.5",
        "eccentricity": ".5087376293482834",
        "semi_major_axis": "2.328217670733308",
        "inclination": "16.41596711256375",
        "ascending_node_longitude": "63.12909080681388",
        "orbital_period": "1297.578970859918",
        "perihelion_distance": "1.143765732317663",
        "perihelion_argument": "191.1441909712254",
        "aphelion_distance": "3.512669609148953",
        "perihelion_time": "2458643.280226124698",
        "mean_anomaly": "99.10696881121986",
        "mean_motion": ".2774397613437158",
        "equinox": "J2000",
        "orbit_class": {
            "orbit_class_type": "AMO",
            "orbit_class_description": "Near-Earth asteroid orbits similar to that of 1221 Amor",
            "orbit_class_range": "1.017 AU < q (perihelion) < 1.3 AU"
        }
    },
    "is_sentry_object": false
}